COSMOS 2251 DEB         
1 34327U 93036NZ  23258.69986612  .00004854  00000+0  88100-3 0  9997
2 34327  74.0086 339.9888 0048967 359.1726 128.1979 14.65720023774826
COSMOS 2251 DEB         
1 34330U 93036PC  23258.65145642  .00013635  00000+0  23035-2 0  9999
2 34330  74.0279 104.4294 0007180  87.7802 334.3053 14.69417601771450
COSMOS 2251 DEB         
1 34331U 93036PD  23258.22570738  .00029632  00000+0  50944-2 0  9994
2 34331  74.0259 197.0644 0036315 337.1512  22.8040 14.68063896768204
COSMOS 2251 DEB         
1 34337U 93036PK  23258.67288148  .00486634  00000+0  33886-2 0  9995
2 34337  73.9406 115.9193 0025537 114.5282 245.8608 15.72481735792953
COSMOS 2251 DEB         
1 34340U 93036PN  23258.37318780  .00000867  00000+0  66345-3 0  9999
2 34340  74.0775 232.3298 0300182 171.1215 342.3252 13.75552618729841
COSMOS 2251 DEB         
1 34342U 93036PQ  23258.68891361  .00016095  00000+0  20924-2 0  9998
2 34342  74.1754 357.4556 0085634 195.6977 290.1197 14.78100245778105
COSMOS 2251 DEB         
1 34343U 93036PR  23258.33759416  .00007889  00000+0  19868-2 0  9991
2 34343  74.0282 213.9117 0028981 332.7800 183.5415 14.51040537767734
COSMOS 2251 DEB         
1 34344U 93036PS  23257.81687267  .00003426  00000+0  18083-2 0  9999
2 34344  73.9810 122.8149 0171127 126.0522   0.3215 14.06992087745252
COSMOS 2251 DEB         
1 34346U 93036PU  23258.49261005  .00002510  00000+0  15479-2 0  9993
2 34346  73.9972 287.4587 0225623 284.5360 202.2721 13.94175212739693
COSMOS 2251 DEB         
1 34383U 93036PY  23258.09066927  .00007741  00000+0  15542-2 0  9998
2 34383  74.0348 113.7846 0011695  92.5328  64.3473 14.61772529769856
COSMOS 2251 DEB         
1 34386U 93036QB  23258.74973618  .00013826  00000+0  25330-2 0  9994
2 34386  74.0254 154.6698 0007512  71.5252 347.7964 14.65809904768269
COSMOS 2251 DEB         
1 34387U 93036QC  23258.55370816  .00001183  00000+0  37765-3 0  9994
2 34387  74.0409 290.3043 0041604 232.3428 281.0024 14.40313285763724
COSMOS 2251 DEB         
1 34388U 93036QD  23258.61609178  .00002322  00000+0  72058-3 0  9998
2 34388  74.0434 309.7913 0015578 208.0649 307.5766 14.41604684763195
COSMOS 2251 DEB         
1 34389U 93036QE  23258.59968788  .00001416  00000+0  47704-3 0  9994
2 34389  74.0218 324.0673 0032316 276.0928 203.4132 14.37673185762246
COSMOS 2251 DEB         
1 34390U 93036QF  23258.61291723  .00007348  00000+0  12827-2 0  9994
2 34390  74.0864  97.4724 0060489 303.2858 112.5375 14.66909763771009
COSMOS 2251 DEB         
1 34395U 93036QL  23258.56465715  .00020908  00000+0  26935-2 0  9999
2 34395  74.0325 110.4613 0004164 224.3814 166.4465 14.81007423769174
