[{"OBJECT_NAME":"COSMOS 2251 DEB","OBJECT_ID":"1993-036NZ","EPOCH":"2023-09-15T16:47:48.432768","MEAN_MOTION":14.65720023,"ECCENTRICITY":0.0048967,"INCLINATION":74.0086,"RA_OF_ASC_NODE":339.9888,"ARG_OF_PERICENTER":359.1726,"MEAN_ANOMALY":128.1979,"EPHEMERIS_TYPE":0,"CLASSIFICATION_TYPE":"U","NORAD_CAT_ID":34327,"ELEMENT_SET_NO":999,"REV_AT_EPOCH":77482,"BSTAR":0.000881,"MEAN_MOTION_DOT":4.854e-5,"MEAN_MOTION_DDOT":0},{"OBJECT_NAME":"COSMOS 2251 DEB","OBJECT_ID":"1993-036PC","EPOCH":"2023-09-15T15:38:05.834688","MEAN_MOTION":14.69417601,"ECCENTRICITY":0.000718,"INCLINATION":74.0279,"RA_OF_ASC_NODE":104.4294,"ARG_OF_PERICENTER":87.7802,"MEAN_ANOMALY":334.3053,"EPHEMERIS_TYPE":0,"CLASSIFICATION_TYPE":"U","NORAD_CAT_ID":34330,"ELEMENT_SET_NO":999,"REV_AT_EPOCH":77145,"BSTAR":0.0023035,"MEAN_MOTION_DOT":0.00013635,"MEAN_MOTION_DDOT":0},{"OBJECT_NAME":"COSMOS 2251 DEB","OBJECT_ID":"1993-036PD","EPOCH":"2023-09-15T05:25:01.117632","MEAN_MOTION":14.68063896,"ECCENTRICITY":0.0036315,"INCLINATION":74.0259,"RA_OF_ASC_NODE":197.0644,"ARG_OF_PERICENTER":337.1512,"MEAN_ANOMALY":22.804,"EPHEMERIS_TYPE":0,"CLASSIFICATION_TYPE":"U","NORAD_CAT_ID":34331,"ELEMENT_SET_NO":999,"REV_AT_EPOCH":76820,"BSTAR":0.0050944,"MEAN_MOTION_DOT":0.00029632,"MEAN_MOTION_DDOT":0},{"OBJECT_NAME":"COSMOS 2251 DEB","OBJECT_ID":"1993-036PK","EPOCH":"2023-09-15T16:08:56.959872","MEAN_MOTION":15.72481735,"ECCENTRICITY":0.0025537,"INCLINATION":73.9406,"RA_OF_ASC_NODE":115.9193,"ARG_OF_PERICENTER":114.5282,"MEAN_ANOMALY":245.8608,"EPHEMERIS_TYPE":0,"CLASSIFICATION_TYPE":"U","NORAD_CAT_ID":34337,"ELEMENT_SET_NO":999,"REV_AT_EPOCH":79295,"BSTAR":0.0033886,"MEAN_MOTION_DOT":0.00486634,"MEAN_MOTION_DDOT":0},{"OBJECT_NAME":"COSMOS 2251 DEB","OBJECT_ID":"1993-036PN","EPOCH":"2023-09-15T08:57:23.425920","MEAN_MOTION":13.75552618,"ECCENTRICITY":0.0300182,"INCLINATION":74.0775,"RA_OF_ASC_NODE":232.3298,"ARG_OF_PERICENTER":171.1215,"MEAN_ANOMALY":342.3252,"EPHEMERIS_TYPE":0,"CLASSIFICATION_TYPE":"U","NORAD_CAT_ID":34340,"ELEMENT_SET_NO":999,"REV_AT_EPOCH":72984,"BSTAR":0.00066345,"MEAN_MOTION_DOT":8.67e-6,"MEAN_MOTION_DDOT":0},{"OBJECT_NAME":"COSMOS 2251 DEB","OBJECT_ID":"1993-036PQ","EPOCH":"2023-09-15T16:32:02.135904","MEAN_MOTION":14.78100245,"ECCENTRICITY":0.0085634,"INCLINATION":74.1754,"RA_OF_ASC_NODE":357.4556,"ARG_OF_PERICENTER":195.6977,"MEAN_ANOMALY":290.1197,"EPHEMERIS_TYPE":0,"CLASSIFICATION_TYPE":"U","NORAD_CAT_ID":34342,"ELEMENT_SET_NO":999,"REV_AT_EPOCH":77810,"BSTAR":0.0020924,"MEAN_MOTION_DOT":0.00016095,"MEAN_MOTION_DDOT":0},{"OBJECT_NAME":"COSMOS 2251 DEB","OBJECT_ID":"1993-036PR","EPOCH":"2023-09-15T08:06:08.135424","MEAN_MOTION":14.51040537,"ECCENTRICITY":0.0028981,"INCLINATION":74.0282,"RA_OF_ASC_NODE":213.9117,"ARG_OF_PERICENTER":332.78,"MEAN_ANOMALY":183.5415,"EPHEMERIS_TYPE":0,"CLASSIFICATION_TYPE":"U","NORAD_CAT_ID":34343,"ELEMENT_SET_NO":999,"REV_AT_EPOCH":76773,"BSTAR":0.0019868,"MEAN_MOTION_DOT":7.889e-5,"MEAN_MOTION_DDOT":0},{"OBJECT_NAME":"COSMOS 2251 DEB","OBJECT_ID":"1993-036PS","EPOCH":"2023-09-14T19:36:17.798688","MEAN_MOTION":14.06992087,"ECCENTRICITY":0.0171127,"INCLINATION":73.981,"RA_OF_ASC_NODE":122.8149,"ARG_OF_PERICENTER":126.0522,"MEAN_ANOMALY":0.3215,"EPHEMERIS_TYPE":0,"CLASSIFICATION_TYPE":"U","NORAD_CAT_ID":34344,"ELEMENT_SET_NO":999,"REV_AT_EPOCH":74525,"BSTAR":0.0018083,"MEAN_MOTION_DOT":3.426e-5,"MEAN_MOTION_DDOT":0},{"OBJECT_NAME":"COSMOS 2251 DEB","OBJECT_ID":"1993-036PU","EPOCH":"2023-09-15T11:49:21.508320","MEAN_MOTION":13.94175212,"ECCENTRICITY":0.0225623,"INCLINATION":73.9972,"RA_OF_ASC_NODE":287.4587,"ARG_OF_PERICENTER":284.536,"MEAN_ANOMALY":202.2721,"EPHEMERIS_TYPE":0,"CLASSIFICATION_TYPE":"U","NORAD_CAT_ID":34346,"ELEMENT_SET_NO":999,"REV_AT_EPOCH":73969,"BSTAR":0.0015479,"MEAN_MOTION_DOT":2.51e-5,"MEAN_MOTION_DDOT":0},{"OBJECT_NAME":"COSMOS 2251 DEB","OBJECT_ID":"1993-036PY","EPOCH":"2023-09-15T02:10:33.824928","MEAN_MOTION":14.61772529,"ECCENTRICITY":0.0011695,"INCLINATION":74.0348,"RA_OF_ASC_NODE":113.7846,"ARG_OF_PERICENTER":92.5328,"MEAN_ANOMALY":64.3473,"EPHEMERIS_TYPE":0,"CLASSIFICATION_TYPE":"U","NORAD_CAT_ID":34383,"ELEMENT_SET_NO":999,"REV_AT_EPOCH":76985,"BSTAR":0.0015542,"MEAN_MOTION_DOT":7.741e-5,"MEAN_MOTION_DDOT":0},{"OBJECT_NAME":"COSMOS 2251 DEB","OBJECT_ID":"1993-036QB","EPOCH":"2023-09-15T17:59:37.205952","MEAN_MOTION":14.65809904,"ECCENTRICITY":0.0007512,"INCLINATION":74.0254,"RA_OF_ASC_NODE":154.6698,"ARG_OF_PERICENTER":71.5252,"MEAN_ANOMALY":347.7964,"EPHEMERIS_TYPE":0,"CLASSIFICATION_TYPE":"U","NORAD_CAT_ID":34386,"ELEMENT_SET_NO":999,"REV_AT_EPOCH":76826,"BSTAR":0.002533,"MEAN_MOTION_DOT":0.00013826,"MEAN_MOTION_DDOT":0},{"OBJECT_NAME":"COSMOS 2251 DEB","OBJECT_ID":"1993-036QC","EPOCH":"2023-09-15T13:17:20.385024","MEAN_MOTION":14.40313285,"ECCENTRICITY":0.0041604,"INCLINATION":74.0409,"RA_OF_ASC_NODE":290.3043,"ARG_OF_PERICENTER":232.3428,"MEAN_ANOMALY":281.0024,"EPHEMERIS_TYPE":0,"CLASSIFICATION_TYPE":"U","NORAD_CAT_ID":34387,"ELEMENT_SET_NO":999,"REV_AT_EPOCH":76372,"BSTAR":0.00037765,"MEAN_MOTION_DOT":1.183e-5,"MEAN_MOTION_DDOT":0},{"OBJECT_NAME":"COSMOS 2251 DEB","OBJECT_ID":"1993-036QD","EPOCH":"2023-09-15T14:47:10.329792","MEAN_MOTION":14.41604684,"ECCENTRICITY":0.0015578,"INCLINATION":74.0434,"RA_OF_ASC_NODE":309.7913,"ARG_OF_PERICENTER":208.0649,"MEAN_ANOMALY":307.5766,"EPHEMERIS_TYPE":0,"CLASSIFICATION_TYPE":"U","NORAD_CAT_ID":34388,"ELEMENT_SET_NO":999,"REV_AT_EPOCH":76319,"BSTAR":0.00072058,"MEAN_MOTION_DOT":2.322e-5,"MEAN_MOTION_DDOT":0},{"OBJECT_NAME":"COSMOS 2251 DEB","OBJECT_ID":"1993-036QE","EPOCH":"2023-09-15T14:23:33.032832","MEAN_MOTION":14.37673185,"ECCENTRICITY":0.0032316,"INCLINATION":74.0218,"RA_OF_ASC_NODE":324.0673,"ARG_OF_PERICENTER":276.0928,"MEAN_ANOMALY":203.4132,"EPHEMERIS_TYPE":0,"CLASSIFICATION_TYPE":"U","NORAD_CAT_ID":34389,"ELEMENT_SET_NO":999,"REV_AT_EPOCH":76224,"BSTAR":0.00047704,"MEAN_MOTION_DOT":1.416e-5,"MEAN_MOTION_DDOT":0},{"OBJECT_NAME":"COSMOS 2251 DEB","OBJECT_ID":"1993-036QF","EPOCH":"2023-09-15T14:42:36.048672","MEAN_MOTION":14.66909763,"ECCENTRICITY":0.0060489,"INCLINATION":74.0864,"RA_OF_ASC_NODE":97.4724,"ARG_OF_PERICENTER":303.2858,"MEAN_ANOMALY":112.5375,"EPHEMERIS_TYPE":0,"CLASSIFICATION_TYPE":"U","NORAD_CAT_ID":34390,"ELEMENT_SET_NO":999,"REV_AT_EPOCH":77100,"BSTAR":0.0012827,"MEAN_MOTION_DOT":7.348e-5,"MEAN_MOTION_DDOT":0},{"OBJECT_NAME":"COSMOS 2251 DEB","OBJECT_ID":"1993-036QL","EPOCH":"2023-09-15T13:33:06.377760","MEAN_MOTION":14.81007423,"ECCENTRICITY":0.0004164,"INCLINATION":74.0325,"RA_OF_ASC_NODE":110.4613,"ARG_OF_PERICENTER":224.3814,"MEAN_ANOMALY":166.4465,"EPHEMERIS_TYPE":0,"CLASSIFICATION_TYPE":"U","NORAD_CAT_ID":34395,"ELEMENT_SET_NO":999,"REV_AT_EPOCH":76917,"BSTAR":0.0026935,"MEAN_MOTION_DOT":0.00020908,"MEAN_MOTION_DDOT":0}]
